******************************************************************************* Revised: July 31, 2013             Moon / (Earth)                          301  GEOPHYSICAL DATA (updated 2018-Aug-15):  Vol. mean radius, km  = 1737.53+-0.03    Mass, x10^22 kg       =    7.349  Radius (gravity), km  = 1738.0           Surface emissivity    =    0.92  Radius (IAU), km      = 1737.4           GM, km^3/s^2          = 4902.800066  Density, g/cm^3       =    3.3437        GM 1-sigma, km^3/s^2  =  +-0.0001    V(1,0)                =   +0.21          Surface accel., m/s^2 =    1.62  Earth/Moon mass ratio = 81.3005690769    Farside crust. thick. = ~80 - 90 km  Mean crustal density  = 2.97+-.07 g/cm^3 Nearside crust. thick.= 58+-8 km   Heat flow, Apollo 15  = 3.1+-.6 mW/m^2   Mean angular diameter = 31'05.2"  Heat flow, Apollo 17  = 2.2+-.5 mW/m^2   Sid. rot. rate, rad/s = 0.0000026617  Geometric Albedo      = 0.12             Mean solar day        = 29.5306 d  Obliquity to orbit    = 6.67 deg         Orbit period          = 27.321582 d  Semi-major axis, a    = 384400 km        Eccentricity          = 0.05490  Mean motion, rad/s    = 2.6616995x10^-6  Inclination           = 5.145 deg  Apsidal period        = 3231.50 d        Nodal period          = 6798.38 d                                 Perihelion  Aphelion    Mean  Solar Constant (W/m^2)         1414+-7     1323+-7     1368+-7  Maximum Planetary IR (W/m^2)   1314        1226        1268  Minimum Planetary IR (W/m^2)      5.2         5.2         5.2********************************************************************************  *******************************************************************************Ephemeris / WWW_USER Fri Jan 29 14:19:19 2021 Pasadena, USA      / Horizons*******************************************************************************Target body name: Moon (301)                      {source: DE431mx}Center body name: Solar System Barycenter (0)     {source: DE431mx}Center-site name: BODY CENTER*******************************************************************************Start time      : A.D. 2021-Jan-01 00:00:00.0000 TDBStop  time      : A.D. 2021-Jan-02 00:00:00.0000 TDBStep-size       : 1440 minutes*******************************************************************************Center geodetic : 0.00000000,0.00000000,0.0000000 {E-lon(deg),Lat(deg),Alt(km)}Center cylindric: 0.00000000,0.00000000,0.0000000 {E-lon(deg),Dxy(km),Dz(km)}Center radii    : (undefined)                                                  Output units    : KM-SOutput type     : GEOMETRIC cartesian statesOutput format   : 2 (position and velocity)Reference frame : Ecliptic of J2000.0*******************************************************************************            JDTDB,            Calendar Date (TDB),                      X,                      Y,                      Z,                     VX,                     VY,                     VZ,**************************************************************************************************************************************************************************************************$$SOE2459215.500000000, A.D. 2021-Jan-01 00:00:00.0000, -2.799727066535989E+07,  1.458568751318572E+08,  3.286459891854972E+04, -3.061409946287052E+01, -6.124051841520339E+00,  6.583915093189630E-02,2459216.500000000, A.D. 2021-Jan-02 00:00:00.0000, -3.063203802696095E+07,  1.452973921418909E+08,  3.787802452908456E+04, -3.036701428022507E+01, -6.821566063928050E+00,  4.963663482336811E-02,$$EOE**************************************************************************************************************************************************************************************************Coordinate system description:  Ecliptic at the standard reference epoch    Reference epoch: J2000.0    X-Y plane: adopted Earth orbital plane at the reference epoch               Note: obliquity of 84381.448 arcseconds (IAU76) wrt ICRF equator    X-axis   : ICRF    Z-axis   : perpendicular to the X-Y plane in the directional (+ or -) sense               of Earth's north pole at the reference epoch.  Symbol meaning:    JDTDB    Julian Day Number, Barycentric Dynamical Time      X      X-component of position vector (km)      Y      Y-component of position vector (km)      Z      Z-component of position vector (km)      VX     X-component of velocity vector (km/sec)                                 VY     Y-component of velocity vector (km/sec)                                 VZ     Z-component of velocity vector (km/sec)                           Geometric states/elements have no aberrations applied. Computations by ...     Solar System Dynamics Group, Horizons On-Line Ephemeris System     4800 Oak Grove Drive, Jet Propulsion Laboratory     Pasadena, CA  91109   USA     Information  : https://ssd.jpl.nasa.gov/     Documentation: https://ssd.jpl.nasa.gov/?horizons_doc     Connect      : https://ssd.jpl.nasa.gov/?horizons (browser)                    telnet ssd.jpl.nasa.gov 6775       (command-line)                    e-mail command interface available                    Script and CGI interfaces available     Author       : Jon.D.Giorgini@jpl.nasa.gov*******************************************************************************